ASTROCAST 0.1           
1 43798U 18099AS  26197.17329972  .00022131  00000+0  37545-3 0  9998
2 43798  97.4373 276.6151 0005485 126.0747 234.1014 15.51499415418926
ASTROCAST-0402          
1 55109U 23001DE  26196.77686881  .00006738  00000+0  24178-3 0  9999
2 55109  97.5587 290.4119 0006473 132.9992 227.1791 15.29017603148909
ASTROCAST-0401          
1 55110U 23001DF  26197.18534668  .00009135  00000+0  33094-3 0  9993
2 55110  97.5573 290.6313 0009527 105.3463 254.8830 15.28569261195638
ASTROCAST-0403          
1 55111U 23001DG  26197.26484337  .00012654  00000+0  40687-3 0  9996
2 55111  97.5626 292.0395 0004819 208.0670 152.0313 15.32387190149014
ASTROCAST-0404          
1 55112U 23001DH  26197.20328505  .00004329  00000+0  15729-3 0  9994
2 55112  97.5673 291.7790 0005164 238.7762 121.2972 15.28832853148966
