{"fetched_at":"2026-07-16T17:46:16.419Z","source":"https://celestrak.org/NORAD/elements/gp.php?NAME=ASTROCAST&FORMAT=JSON","constellation":"astrocast","records":[{"OBJECT_NAME":"ASTROCAST 0.1","OBJECT_ID":"2018-099AS","EPOCH":"2026-07-16T04:09:33.095808","CLASSIFICATION_TYPE":"U","MEAN_MOTION":15.51499415,"ECCENTRICITY":0.00054856,"INCLINATION":97.4373,"RA_OF_ASC_NODE":276.6151,"ARG_OF_PERICENTER":126.0747,"MEAN_ANOMALY":234.1014,"EPHEMERIS_TYPE":0,"NORAD_CAT_ID":43798,"ELEMENT_SET_NO":999,"REV_AT_EPOCH":41892,"BSTAR":0.0003754474,"MEAN_MOTION_DOT":0.00022131,"MEAN_MOTION_DDOT":0},{"OBJECT_NAME":"ASTROCAST-0402","OBJECT_ID":"2023-001DE","EPOCH":"2026-07-15T18:38:41.465184","CLASSIFICATION_TYPE":"U","MEAN_MOTION":15.29017603,"ECCENTRICITY":0.0006473,"INCLINATION":97.5587,"RA_OF_ASC_NODE":290.4119,"ARG_OF_PERICENTER":132.9992,"MEAN_ANOMALY":227.1791,"EPHEMERIS_TYPE":0,"NORAD_CAT_ID":55109,"ELEMENT_SET_NO":999,"REV_AT_EPOCH":14890,"BSTAR":0.00024178284,"MEAN_MOTION_DOT":0.00006738,"MEAN_MOTION_DDOT":0},{"OBJECT_NAME":"ASTROCAST-0401","OBJECT_ID":"2023-001DF","EPOCH":"2026-07-16T04:26:53.953152","CLASSIFICATION_TYPE":"U","MEAN_MOTION":15.28569261,"ECCENTRICITY":0.00095272,"INCLINATION":97.5573,"RA_OF_ASC_NODE":290.6313,"ARG_OF_PERICENTER":105.3463,"MEAN_ANOMALY":254.883,"EPHEMERIS_TYPE":0,"NORAD_CAT_ID":55110,"ELEMENT_SET_NO":999,"REV_AT_EPOCH":19563,"BSTAR":0.00033094474,"MEAN_MOTION_DOT":0.00009135,"MEAN_MOTION_DDOT":0},{"OBJECT_NAME":"ASTROCAST-0403","OBJECT_ID":"2023-001DG","EPOCH":"2026-07-16T06:21:22.467168","CLASSIFICATION_TYPE":"U","MEAN_MOTION":15.3238719,"ECCENTRICITY":0.00048196,"INCLINATION":97.5626,"RA_OF_ASC_NODE":292.0395,"ARG_OF_PERICENTER":208.067,"MEAN_ANOMALY":152.0313,"EPHEMERIS_TYPE":0,"NORAD_CAT_ID":55111,"ELEMENT_SET_NO":999,"REV_AT_EPOCH":14901,"BSTAR":0.00040686703,"MEAN_MOTION_DOT":0.00012654,"MEAN_MOTION_DDOT":0},{"OBJECT_NAME":"ASTROCAST-0404","OBJECT_ID":"2023-001DH","EPOCH":"2026-07-16T04:52:43.828320","CLASSIFICATION_TYPE":"U","MEAN_MOTION":15.28832853,"ECCENTRICITY":0.00051645,"INCLINATION":97.5673,"RA_OF_ASC_NODE":291.779,"ARG_OF_PERICENTER":238.7762,"MEAN_ANOMALY":121.2972,"EPHEMERIS_TYPE":0,"NORAD_CAT_ID":55112,"ELEMENT_SET_NO":999,"REV_AT_EPOCH":14896,"BSTAR":0.00015729122,"MEAN_MOTION_DOT":0.00004329,"MEAN_MOTION_DDOT":0}]}
